0 SL-14 DEB
1 35522U 87068CR  13282.93926092  .00000256  00000-0  21020-3 0  1007
2 35522 082.5502 008.5569 0018309 145.5639 214.6728 13.85725085531832
0 SL-14 DEB
1 35522U 87068CR  13291.89269368  .00000274  00000-0  22560-3 0  1019
2 35522 082.5499 001.4294 0018489 118.8349 241.4897 13.85730238533073
0 SL-14 DEB
1 35522U 87068CR  13293.91442307  .00000281  00000-0  23232-3 0  1026
2 35522 082.5490 359.8157 0018024 113.4226 246.8851 13.85731674533357
